<?xml version="1.0" encoding="UTF-8"?>
<osm version="0.6" generator="openstreetmap-cgimap 2.1.0 (2942773 spike-08.openstreetmap.org)" copyright="OpenStreetMap and contributors" attribution="http://www.openstreetmap.org/copyright" license="http://opendatacommons.org/licenses/odbl/1-0/">
 <bounds minlat="12.9673870" minlon="79.1586830" maxlat="12.9683750" maxlon="79.1600240"/>
 <node id="5487048415" visible="true" version="3" changeset="187420742" timestamp="2026-08-14T04:13:11Z" user="TheLNL" uid="21256080" lat="12.9679853" lon="79.1587974"/>
 <node id="5487048416" visible="true" version="3" changeset="187420742" timestamp="2026-08-14T04:13:11Z" user="TheLNL" uid="21256080" lat="12.9679580" lon="79.1587968"/>
 <node id="5487048417" visible="true" version="3" changeset="187420742" timestamp="2026-08-14T04:13:11Z" user="TheLNL" uid="21256080" lat="12.9679517" lon="79.1591065"/>
 <node id="5487048418" visible="true" version="3" changeset="187420742" timestamp="2026-08-14T04:13:11Z" user="TheLNL" uid="21256080" lat="12.9678869" lon="79.1591051"/>
 <node id="5487048419" visible="true" version="3" changeset="187420742" timestamp="2026-08-14T04:13:11Z" user="TheLNL" uid="21256080" lat="12.9678884" lon="79.1590356"/>
 <node id="5487048420" visible="true" version="3" changeset="187420742" timestamp="2026-08-14T04:13:11Z" user="TheLNL" uid="21256080" lat="12.9676120" lon="79.1590297"/>
 <node id="5487048824" visible="true" version="1" changeset="57298676" timestamp="2018-03-18T18:59:23Z" user="adivik2000" uid="250196" lat="12.9676287" lon="79.1592126">
  <tag k="amenity" v="parking"/>
 </node>
 <node id="5625452453" visible="true" version="3" changeset="187420742" timestamp="2026-08-14T04:13:11Z" user="TheLNL" uid="21256080" lat="12.9679869" lon="79.1587221"/>
 <node id="10032723288" visible="true" version="2" changeset="187420742" timestamp="2026-08-14T04:13:11Z" user="TheLNL" uid="21256080" lat="12.9683272" lon="79.1593585"/>
 <node id="10032723289" visible="true" version="2" changeset="187420742" timestamp="2026-08-14T04:13:11Z" user="TheLNL" uid="21256080" lat="12.9680429" lon="79.1593526"/>
 <node id="10032723290" visible="true" version="2" changeset="187420742" timestamp="2026-08-14T04:13:11Z" user="TheLNL" uid="21256080" lat="12.9680505" lon="79.1589762"/>
 <node id="10032723291" visible="true" version="2" changeset="187420742" timestamp="2026-08-14T04:13:11Z" user="TheLNL" uid="21256080" lat="12.9683349" lon="79.1589822"/>
 <node id="10032723302" visible="true" version="2" changeset="187420742" timestamp="2026-08-14T04:13:11Z" user="TheLNL" uid="21256080" lat="12.9682658" lon="79.1597832"/>
 <node id="10032723303" visible="true" version="2" changeset="187420742" timestamp="2026-08-14T04:13:11Z" user="TheLNL" uid="21256080" lat="12.9678064" lon="79.1597671"/>
 <node id="10032723304" visible="true" version="2" changeset="187420742" timestamp="2026-08-14T04:13:11Z" user="TheLNL" uid="21256080" lat="12.9678130" lon="79.1595686"/>
 <node id="10032723305" visible="true" version="2" changeset="187420742" timestamp="2026-08-14T04:13:11Z" user="TheLNL" uid="21256080" lat="12.9682724" lon="79.1595847"/>
 <node id="10032723306" visible="true" version="2" changeset="187420742" timestamp="2026-08-14T04:13:11Z" user="TheLNL" uid="21256080" lat="12.9675919" lon="79.1592360"/>
 <node id="10032723307" visible="true" version="2" changeset="187420742" timestamp="2026-08-14T04:13:11Z" user="TheLNL" uid="21256080" lat="12.9674436" lon="79.1596772"/>
 <node id="10032723308" visible="true" version="2" changeset="187420742" timestamp="2026-08-14T04:13:11Z" user="TheLNL" uid="21256080" lat="12.9676105" lon="79.1597362"/>
 <node id="10032723309" visible="true" version="2" changeset="187420742" timestamp="2026-08-14T04:13:11Z" user="TheLNL" uid="21256080" lat="12.9677588" lon="79.1592950"/>
 <node id="10219868359" visible="true" version="1" changeset="129405566" timestamp="2022-11-26T15:01:38Z" user="uknown-gryphus" uid="2425805" lat="12.9674805" lon="79.1586019"/>
 <node id="14093702522" visible="true" version="1" changeset="187420742" timestamp="2026-08-14T04:13:11Z" user="TheLNL" uid="21256080" lat="12.9673270" lon="79.1591757"/>
 <node id="14093702523" visible="true" version="1" changeset="187420742" timestamp="2026-08-14T04:13:11Z" user="TheLNL" uid="21256080" lat="12.9674235" lon="79.1598157"/>
 <node id="14093702524" visible="true" version="1" changeset="187420742" timestamp="2026-08-14T04:13:11Z" user="TheLNL" uid="21256080" lat="12.9673952" lon="79.1598096"/>
 <node id="14093702525" visible="true" version="1" changeset="187420742" timestamp="2026-08-14T04:13:11Z" user="TheLNL" uid="21256080" lat="12.9673541" lon="79.1597693"/>
 <node id="14093702526" visible="true" version="1" changeset="187420742" timestamp="2026-08-14T04:13:11Z" user="TheLNL" uid="21256080" lat="12.9673468" lon="79.1597405"/>
 <node id="14093702527" visible="true" version="1" changeset="187420742" timestamp="2026-08-14T04:13:11Z" user="TheLNL" uid="21256080" lat="12.9673502" lon="79.1597110"/>
 <node id="14093702528" visible="true" version="1" changeset="187420742" timestamp="2026-08-14T04:13:11Z" user="TheLNL" uid="21256080" lat="12.9677581" lon="79.1598230"/>
 <node id="14093702529" visible="true" version="1" changeset="187420742" timestamp="2026-08-14T04:13:11Z" user="TheLNL" uid="21256080" lat="12.9677686" lon="79.1593426"/>
 <node id="14093702530" visible="true" version="1" changeset="187420742" timestamp="2026-08-14T04:13:11Z" user="TheLNL" uid="21256080" lat="12.9683070" lon="79.1595854"/>
 <node id="14093702531" visible="true" version="1" changeset="187420742" timestamp="2026-08-14T04:13:11Z" user="TheLNL" uid="21256080" lat="12.9683005" lon="79.1598348"/>
 <node id="14093702532" visible="true" version="1" changeset="187420742" timestamp="2026-08-14T04:13:11Z" user="TheLNL" uid="21256080" lat="12.9673709" lon="79.1597934"/>
 <node id="14093702533" visible="true" version="1" changeset="187420742" timestamp="2026-08-14T04:13:11Z" user="TheLNL" uid="21256080" lat="12.9675020" lon="79.1592139"/>
 <node id="14093702534" visible="true" version="1" changeset="187420742" timestamp="2026-08-14T04:13:11Z" user="TheLNL" uid="21256080" lat="12.9675725" lon="79.1588545"/>
 <node id="14093702535" visible="true" version="1" changeset="187420742" timestamp="2026-08-14T04:13:11Z" user="TheLNL" uid="21256080" lat="12.9677431" lon="79.1587892"/>
 <node id="14093702536" visible="true" version="1" changeset="187420742" timestamp="2026-08-14T04:13:11Z" user="TheLNL" uid="21256080" lat="12.9676912" lon="79.1588330"/>
 <node id="14093702537" visible="true" version="1" changeset="187420742" timestamp="2026-08-14T04:13:11Z" user="TheLNL" uid="21256080" lat="12.9678881" lon="79.1587923"/>
 <node id="14093702538" visible="true" version="1" changeset="187420742" timestamp="2026-08-14T04:13:11Z" user="TheLNL" uid="21256080" lat="12.9678849" lon="79.1589525"/>
 <node id="14093702539" visible="true" version="1" changeset="187420742" timestamp="2026-08-14T04:13:11Z" user="TheLNL" uid="21256080" lat="12.9676889" lon="79.1589484"/>
 <node id="14093702540" visible="true" version="1" changeset="187420742" timestamp="2026-08-14T04:13:11Z" user="TheLNL" uid="21256080" lat="12.9676797" lon="79.1587236"/>
 <node id="14093702541" visible="true" version="1" changeset="187420742" timestamp="2026-08-14T04:13:11Z" user="TheLNL" uid="21256080" lat="12.9676234" lon="79.1587817"/>
 <node id="14093702542" visible="true" version="1" changeset="187420742" timestamp="2026-08-14T04:13:11Z" user="TheLNL" uid="21256080" lat="12.9676230" lon="79.1588010"/>
 <node id="14093702543" visible="true" version="1" changeset="187420742" timestamp="2026-08-14T04:13:11Z" user="TheLNL" uid="21256080" lat="12.9676153" lon="79.1588008"/>
 <node id="14093702544" visible="true" version="1" changeset="187420742" timestamp="2026-08-14T04:13:11Z" user="TheLNL" uid="21256080" lat="12.9677259" lon="79.1587246"/>
 <node id="14093702545" visible="true" version="1" changeset="187420742" timestamp="2026-08-14T04:13:11Z" user="TheLNL" uid="21256080" lat="12.9677261" lon="79.1587160"/>
 <node id="14093702546" visible="true" version="1" changeset="187420742" timestamp="2026-08-14T04:13:11Z" user="TheLNL" uid="21256080" lat="12.9676106" lon="79.1590297"/>
 <node id="14093702547" visible="true" version="1" changeset="187420742" timestamp="2026-08-14T04:13:11Z" user="TheLNL" uid="21256080" lat="12.9679869" lon="79.1587215"/>
 <node id="14165878668" visible="true" version="1" changeset="188759384" timestamp="2026-09-09T08:10:27Z" user="Yojasree" uid="24533691" lat="12.9678623" lon="79.1591697"/>
 <node id="14165878669" visible="true" version="1" changeset="188759384" timestamp="2026-09-09T08:10:27Z" user="Yojasree" uid="24533691" lat="12.9679849" lon="79.1591590"/>
 <node id="14165878670" visible="true" version="1" changeset="188759384" timestamp="2026-09-09T08:10:27Z" user="Yojasree" uid="24533691" lat="12.9680110" lon="79.1589930"/>
 <node id="14165878671" visible="true" version="1" changeset="188759384" timestamp="2026-09-09T08:10:27Z" user="Yojasree" uid="24533691" lat="12.9683346" lon="79.1594027"/>
 <node id="14165878672" visible="true" version="1" changeset="188759384" timestamp="2026-09-09T08:10:27Z" user="Yojasree" uid="24533691" lat="12.9681441" lon="79.1594053"/>
 <node id="14165878673" visible="true" version="1" changeset="188759384" timestamp="2026-09-09T08:10:27Z" user="Yojasree" uid="24533691" lat="12.9681076" lon="79.1595178"/>
 <node id="14165878674" visible="true" version="1" changeset="188759384" timestamp="2026-09-09T08:10:27Z" user="Yojasree" uid="24533691" lat="12.9683998" lon="79.1594990"/>
 <node id="14165878675" visible="true" version="1" changeset="188759384" timestamp="2026-09-09T08:10:27Z" user="Yojasree" uid="24533691" lat="12.9685617" lon="79.1594558"/>
 <node id="14165878676" visible="true" version="1" changeset="188759384" timestamp="2026-09-09T08:10:27Z" user="Yojasree" uid="24533691" lat="12.9677647" lon="79.1595216"/>
 <node id="14165878677" visible="true" version="1" changeset="188759384" timestamp="2026-09-09T08:10:27Z" user="Yojasree" uid="24533691" lat="12.9681335" lon="79.1591946">
  <tag k="building:levels" v="17"/>
  <tag k="name" v="J Block"/>
 </node>
 <node id="14165907135" visible="true" version="1" changeset="188759444" timestamp="2026-09-09T08:12:18Z" user="Yojasree" uid="24533691" lat="12.9680005" lon="79.1594026"/>
 <way id="570750852" visible="true" version="4" changeset="187420742" timestamp="2026-08-14T04:13:11Z" user="TheLNL" uid="21256080">
  <nd ref="5625452453"/>
  <nd ref="14093702547"/>
  <nd ref="14093702545"/>
  <nd ref="14093702544"/>
  <nd ref="14093702540"/>
  <nd ref="14093702541"/>
  <nd ref="14093702542"/>
  <nd ref="14093702543"/>
  <nd ref="14093702546"/>
  <nd ref="5487048420"/>
  <nd ref="5487048419"/>
  <nd ref="5487048418"/>
  <nd ref="5487048417"/>
  <nd ref="5487048416"/>
  <nd ref="5487048415"/>
  <nd ref="5625452453"/>
 </way>
 <way id="1095528320" visible="true" version="1" changeset="126317147" timestamp="2022-09-18T03:56:21Z" user="Arun Balaji" uid="3427745">
  <nd ref="10032723291"/>
  <nd ref="10032723288"/>
  <nd ref="10032723289"/>
  <nd ref="10032723290"/>
  <nd ref="10032723291"/>
  <tag k="building" v="yes"/>
 </way>
 <way id="1095528323" visible="true" version="2" changeset="188759384" timestamp="2026-09-09T08:10:27Z" user="Yojasree" uid="24533691">
  <nd ref="10032723305"/>
  <nd ref="10032723302"/>
  <nd ref="10032723303"/>
  <nd ref="10032723304"/>
  <nd ref="10032723305"/>
  <tag k="building" v="yes"/>
  <tag k="building:levels" v="17"/>
  <tag k="name" v="H Block"/>
 </way>
 <way id="1095528324" visible="true" version="2" changeset="188759384" timestamp="2026-09-09T08:10:27Z" user="Yojasree" uid="24533691">
  <nd ref="10032723309"/>
  <nd ref="10032723308"/>
  <nd ref="10032723307"/>
  <nd ref="10032723306"/>
  <nd ref="10032723309"/>
  <tag k="building" v="yes"/>
  <tag k="building:levels" v="17"/>
  <tag k="name" v="G Block"/>
 </way>
 <way id="1549529398" visible="true" version="1" changeset="187420742" timestamp="2026-08-14T04:13:11Z" user="TheLNL" uid="21256080">
  <nd ref="14093702533"/>
  <nd ref="14093702522"/>
  <tag k="highway" v="service"/>
 </way>
 <way id="1549529399" visible="true" version="2" changeset="188759384" timestamp="2026-09-09T08:10:27Z" user="Yojasree" uid="24533691">
  <nd ref="14093702529"/>
  <nd ref="14165878676"/>
  <nd ref="14093702528"/>
  <tag k="highway" v="pedestrian"/>
  <tag k="name" v="hostel road"/>
  <tag k="surface" v="concrete"/>
 </way>
 <way id="1549529400" visible="true" version="1" changeset="187420742" timestamp="2026-08-14T04:13:11Z" user="TheLNL" uid="21256080">
  <nd ref="10219868359"/>
  <nd ref="14093702534"/>
  <nd ref="14093702533"/>
  <nd ref="14093702527"/>
  <nd ref="14093702526"/>
  <nd ref="14093702525"/>
  <nd ref="14093702532"/>
  <nd ref="14093702524"/>
  <nd ref="14093702523"/>
  <nd ref="14093702528"/>
  <nd ref="14093702531"/>
  <nd ref="14093702530"/>
  <tag k="highway" v="service"/>
 </way>
 <way id="1549529401" visible="true" version="1" changeset="187420742" timestamp="2026-08-14T04:13:11Z" user="TheLNL" uid="21256080">
  <nd ref="14093702539"/>
  <nd ref="14093702536"/>
  <nd ref="14093702535"/>
  <nd ref="14093702537"/>
  <nd ref="14093702538"/>
  <nd ref="14093702539"/>
 </way>
 <way id="1557556402" visible="true" version="1" changeset="188759384" timestamp="2026-09-09T08:10:27Z" user="Yojasree" uid="24533691">
  <nd ref="14165878668"/>
  <nd ref="14093702529"/>
  <tag k="highway" v="pedestrian"/>
  <tag k="name" v="Hostel road"/>
 </way>
 <way id="1557556403" visible="true" version="1" changeset="188759384" timestamp="2026-09-09T08:10:27Z" user="Yojasree" uid="24533691">
  <nd ref="14165878668"/>
  <nd ref="14165878669"/>
  <nd ref="14165878670"/>
  <nd ref="10032723291"/>
  <nd ref="14165878671"/>
  <nd ref="14165878672"/>
  <nd ref="14165878673"/>
  <nd ref="14093702530"/>
  <nd ref="14165878674"/>
  <nd ref="14165878675"/>
  <tag k="highway" v="pedestrian"/>
  <tag k="layer" v="1"/>
  <tag k="surface" v="concrete"/>
 </way>
 <way id="1557556404" visible="true" version="1" changeset="188759384" timestamp="2026-09-09T08:10:27Z" user="Yojasree" uid="24533691">
  <nd ref="14165878676"/>
  <nd ref="14165878673"/>
  <tag k="highway" v="pedestrian"/>
  <tag k="name" v="Hostel Road"/>
  <tag k="surface" v="concrete"/>
 </way>
 <way id="1557556405" visible="true" version="1" changeset="188759384" timestamp="2026-09-09T08:10:27Z" user="Yojasree" uid="24533691">
  <nd ref="14165878673"/>
  <nd ref="14165878676"/>
  <tag k="embankment" v="yes"/>
  <tag k="highway" v="pedestrian"/>
  <tag k="name" v="Hostel Road"/>
  <tag k="surface" v="concrete"/>
 </way>
 <way id="1557556994" visible="true" version="1" changeset="188759444" timestamp="2026-09-09T08:12:18Z" user="Yojasree" uid="24533691">
  <nd ref="14165878672"/>
  <nd ref="14165907135"/>
  <nd ref="14165878669"/>
  <tag k="highway" v="pedestrian"/>
  <tag k="name" v="Hostel Road"/>
  <tag k="surface" v="concrete"/>
 </way>
 <relation id="21227412" visible="true" version="1" changeset="187420742" timestamp="2026-08-14T04:13:11Z" user="TheLNL" uid="21256080">
  <member type="way" ref="570750852" role="outer"/>
  <member type="way" ref="1549529401" role="inner"/>
  <tag k="building" v="yes"/>
  <tag k="name" v="VIT Guest House"/>
  <tag k="tourism" v="guest_house"/>
  <tag k="type" v="multipolygon"/>
 </relation>
</osm>
